{"type": "FeatureCollection", "features": [ {"type": "Feature", "properties": {"norad_id": 37693, "name": "FENGYUN 1C DEB", "group": "fengyun-1c-debris", "lat": 18.92503170988328, "lon": 178.41669669998998, "alt_km": 883.8227286249003, "timestamp": "2025-12-21T22:41:41.749439+00:00", "meta": {"OBJECT_NAME": "FENGYUN 1C DEB", "OBJECT_ID": "1999-025ELJ", "EPOCH": "2025-12-16T18:19:01.844256", "MEAN_MOTION": 14.08494893, "ECCENTRICITY": 0.00726586, "INCLINATION": 98.6941, "RA_OF_ASC_NODE": 350.4139, "ARG_OF_PERICENTER": 63.6223, "MEAN_ANOMALY": 113.0699, "EPHEMERIS_TYPE": 0, "CLASSIFICATION_TYPE": "U", "NORAD_CAT_ID": 37693, "ELEMENT_SET_NO": 999, "REV_AT_EPOCH": 62205, "BSTAR": 0.00066899007, "MEAN_MOTION_DOT": 1.134e-05, "MEAN_MOTION_DDOT": 0}, "tle": {"line1": "1 37693U 99025ELJ 25350.76321579  .00001134  00000+0  66899-3 0  9997", "line2": "2 37693  98.6941 350.4139 0072658  63.6223 113.0699 14.08494893622056"}}, "geometry": {"type": "Point", "coordinates": [178.41669669998998, 18.92503170988328]}}, {"type": "Feature", "properties": {"norad_id": 37694, "name": "FENGYUN 1C DEB", "group": "fengyun-1c-debris", "lat": 17.049716808181035, "lon": -114.62587831391669, "alt_km": 846.2497916657976, "timestamp": "2025-12-21T22:41:41.749449+00:00", "meta": {"OBJECT_NAME": "FENGYUN 1C DEB", "OBJECT_ID": "1999-025ELK", "EPOCH": "2025-12-14T10:20:27.757248", "MEAN_MOTION": 14.16668534, "ECCENTRICITY": 0.01472645, "INCLINATION": 98.1988, "RA_OF_ASC_NODE": 55.9107, "ARG_OF_PERICENTER": 88.6122, "MEAN_ANOMALY": 288.1431, "EPHEMERIS_TYPE": 0, "CLASSIFICATION_TYPE": "U", "NORAD_CAT_ID": 37694, "ELEMENT_SET_NO": 999, "REV_AT_EPOCH": 51728, "BSTAR": 0.0018272074, "MEAN_MOTION_DOT": 4.021e-05, "MEAN_MOTION_DDOT": 0}, "tle": {"line1": "1 37694U 99025ELK 25348.43087682  .00004021  00000+0  18272-2 0  9992", "line2": "2 37694  98.1988  55.9107 0147264  88.6122 288.1431 14.16668534517286"}}, "geometry": {"type": "Point", "coordinates": [-114.62587831391669, 17.049716808181035]}}, {"type": "Feature", "properties": {"norad_id": 37695, "name": "FENGYUN 1C DEB", "group": "fengyun-1c-debris", "lat": 34.5971831851594, "lon": -136.39763809662563, "alt_km": 1007.3019489807812, "timestamp": "2025-12-21T22:41:41.749459+00:00", "meta": {"OBJECT_NAME": "FENGYUN 1C DEB", "OBJECT_ID": "1999-025ELL", "EPOCH": "2025-12-15T20:50:38.916672", "MEAN_MOTION": 13.64992638, "ECCENTRICITY": 0.04654766, "INCLINATION": 98.2113, "RA_OF_ASC_NODE": 32.72, "ARG_OF_PERICENTER": 252.5094, "MEAN_ANOMALY": 291.0319, "EPHEMERIS_TYPE": 0, "CLASSIFICATION_TYPE": "U", "NORAD_CAT_ID": 37695, "ELEMENT_SET_NO": 999, "REV_AT_EPOCH": 89294, "BSTAR": 0.00074996206, "MEAN_MOTION_DOT": 1.237e-05, "MEAN_MOTION_DDOT": 0}, "tle": {"line1": "1 37695U 99025ELL 25349.86850598  .00001237  00000+0  74996-3 0  9997", "line2": "2 37695  98.2113  32.7200 0465476 252.5094 291.0319 13.64992638892947"}}, "geometry": {"type": "Point", "coordinates": [-136.39763809662563, 34.5971831851594]}}, {"type": "Feature", "properties": {"norad_id": 37704, "name": "FENGYUN 1C DEB", "group": "fengyun-1c-debris", "lat": -56.378787338489346, "lon": -159.4243093759952, "alt_km": 1154.4504470315915, "timestamp": "2025-12-21T22:41:41.749468+00:00", "meta": {"OBJECT_NAME": "FENGYUN 1C DEB", "OBJECT_ID": "1999-025ELV", "EPOCH": "2025-12-10T18:58:47.253216", "MEAN_MOTION": 13.70500661, "ECCENTRICITY": 0.02401356, "INCLINATION": 98.3199, "RA_OF_ASC_NODE": 178.1952, "ARG_OF_PERICENTER": 184.1814, "MEAN_ANOMALY": 190.5574, "EPHEMERIS_TYPE": 0, "CLASSIFICATION_TYPE": "U", "NORAD_CAT_ID": 37704, "ELEMENT_SET_NO": 999, "REV_AT_EPOCH": 62338, "BSTAR": 0.0019314833, "MEAN_MOTION_DOT": 2.062e-05, "MEAN_MOTION_DDOT": 0}, "tle": {"line1": "1 37704U 99025ELV 25344.79082469  .00002062  00000+0  19315-2 0  9999", "line2": "2 37704  98.3199 178.1952 0240135 184.1814 190.5574 13.70500661623389"}}, "geometry": {"type": "Point", "coordinates": [-159.4243093759952, -56.378787338489346]}}, {"type": "Feature", "properties": {"norad_id": 37707, "name": "FENGYUN 1C DEB", "group": "fengyun-1c-debris", "lat": 10.03151829834126, "lon": 0.1703314737554898, "alt_km": 606.3254634614568, "timestamp": "2025-12-21T22:41:41.749479+00:00", "meta": {"OBJECT_NAME": "FENGYUN 1C DEB", "OBJECT_ID": "1999-025ELY", "EPOCH": "2025-12-17T06:35:19.530240", "MEAN_MOTION": 14.56477467, "ECCENTRICITY": 0.01433735, "INCLINATION": 100.2206, "RA_OF_ASC_NODE": 356.2824, "ARG_OF_PERICENTER": 12.733, "MEAN_ANOMALY": 358.6114, "EPHEMERIS_TYPE": 0, "CLASSIFICATION_TYPE": "U", "NORAD_CAT_ID": 37707, "ELEMENT_SET_NO": 999, "REV_AT_EPOCH": 85632, "BSTAR": 0.00056858098, "MEAN_MOTION_DOT": 2.832e-05, "MEAN_MOTION_DDOT": 0}, "tle": {"line1": "1 37707U 99025ELY 25351.27453160  .00002832  00000+0  56858-3 0  9992", "line2": "2 37707 100.2206 356.2824 0143373  12.7330 358.6114 14.56477467856327"}}, "geometry": {"type": "Point", "coordinates": [0.1703314737554898, 10.03151829834126]}}, {"type": "Feature", "properties": {"norad_id": 37712, "name": "FENGYUN 1C DEB", "group": "fengyun-1c-debris", "lat": -80.32373445449439, "lon": -159.2501374604582, "alt_km": 742.8123539605995, "timestamp": "2025-12-21T22:41:41.749489+00:00", "meta": {"OBJECT_NAME": "FENGYUN 1C DEB", "OBJECT_ID": "1999-025EMD", "EPOCH": "2025-12-21T03:52:22.322208", "MEAN_MOTION": 14.3644777, "ECCENTRICITY": 0.00788764, "INCLINATION": 98.8186, "RA_OF_ASC_NODE": 134.3771, "ARG_OF_PERICENTER": 328.6052, "MEAN_ANOMALY": 212.8774, "EPHEMERIS_TYPE": 0, "CLASSIFICATION_TYPE": "U", "NORAD_CAT_ID": 37712, "ELEMENT_SET_NO": 999, "REV_AT_EPOCH": 64081, "BSTAR": 0.00029257715, "MEAN_MOTION_DOT": 8.41e-06, "MEAN_MOTION_DDOT": 0}, "tle": {"line1": "1 37712U 99025EMD 25355.16136947  .00000841  00000+0  29258-3 0  9993", "line2": "2 37712  98.8186 134.3771 0078876 328.6052 212.8774 14.36447770640813"}}, "geometry": {"type": "Point", "coordinates": [-159.2501374604582, -80.32373445449439]}}, {"type": "Feature", "properties": {"norad_id": 37714, "name": "FENGYUN 1C DEB", "group": "fengyun-1c-debris", "lat": 33.280765493852364, "lon": 101.97785170210597, "alt_km": 750.3952927332248, "timestamp": "2025-12-21T22:41:41.749499+00:00", "meta": {"OBJECT_NAME": "FENGYUN 1C DEB", "OBJECT_ID": "1999-025EMF", "EPOCH": "2025-12-17T02:51:19.662912", "MEAN_MOTION": 14.3227902, "ECCENTRICITY": 0.00479393, "INCLINATION": 98.8925, "RA_OF_ASC_NODE": 102.9292, "ARG_OF_PERICENTER": 71.5277, "MEAN_ANOMALY": 289.1107, "EPHEMERIS_TYPE": 0, "CLASSIFICATION_TYPE": "U", "NORAD_CAT_ID": 37714, "ELEMENT_SET_NO": 999, "REV_AT_EPOCH": 57572, "BSTAR": 0.0015552397, "MEAN_MOTION_DOT": 4.206e-05, "MEAN_MOTION_DDOT": 0}, "tle": {"line1": "1 37714U 99025EMF 25351.11897758  .00004206  00000+0  15552-2 0  9990", "line2": "2 37714  98.8925 102.9292 0047939  71.5277 289.1107 14.32279020575725"}}, "geometry": {"type": "Point", "coordinates": [101.97785170210597, 33.280765493852364]}}, {"type": "Feature", "properties": {"norad_id": 37715, "name": "FENGYUN 1C DEB", "group": "fengyun-1c-debris", "lat": 55.752225216955104, "lon": -9.944023975346527, "alt_km": 831.8519082460425, "timestamp": "2025-12-21T22:41:41.749509+00:00", "meta": {"OBJECT_NAME": "FENGYUN 1C DEB", "OBJECT_ID": "1999-025EMG", "EPOCH": "2025-12-20T19:43:59.291328", "MEAN_MOTION": 13.95423979, "ECCENTRICITY": 0.01145273, "INCLINATION": 98.9554, "RA_OF_ASC_NODE": 2.3565, "ARG_OF_PERICENTER": 90.0552, "MEAN_ANOMALY": 87.0761, "EPHEMERIS_TYPE": 0, "CLASSIFICATION_TYPE": "U", "NORAD_CAT_ID": 37715, "ELEMENT_SET_NO": 999, "REV_AT_EPOCH": 57916, "BSTAR": 0.00028530169, "MEAN_MOTION_DOT": 3.67e-06, "MEAN_MOTION_DDOT": 0}, "tle": {"line1": "1 37715U 99025EMG 25354.82221402  .00000367  00000+0  28530-3 0  9994", "line2": "2 37715  98.9554   2.3565 0114527  90.0552  87.0761 13.95423979579166"}}, "geometry": {"type": "Point", "coordinates": [-9.944023975346527, 55.752225216955104]}}, {"type": "Feature", "properties": {"norad_id": 37717, "name": "FENGYUN 1C DEB", "group": "fengyun-1c-debris", "lat": 32.432434913935964, "lon": 138.3259345963025, "alt_km": 570.8153235722621, "timestamp": "2025-12-21T22:41:41.749519+00:00", "meta": {"OBJECT_NAME": "FENGYUN 1C DEB", "OBJECT_ID": "1999-025EMJ", "EPOCH": "2025-12-15T15:45:42.031008", "MEAN_MOTION": 14.9413508, "ECCENTRICITY": 0.00589425, "INCLINATION": 98.7251, "RA_OF_ASC_NODE": 305.744, "ARG_OF_PERICENTER": 93.6212, "MEAN_ANOMALY": 83.4535, "EPHEMERIS_TYPE": 0, "CLASSIFICATION_TYPE": "U", "NORAD_CAT_ID": 37717, "ELEMENT_SET_NO": 999, "REV_AT_EPOCH": 89441, "BSTAR": 0.0015918464, "MEAN_MOTION_DOT": 0.00017586, "MEAN_MOTION_DDOT": 0}, "tle": {"line1": "1 37717U 99025EMJ 25349.65673647  .00017586  00000+0  15918-2 0  9999", "line2": "2 37717  98.7251 305.7440 0058942  93.6212  83.4535 14.94135080894412"}}, "geometry": {"type": "Point", "coordinates": [138.3259345963025, 32.432434913935964]}}, {"type": "Feature", "properties": {"norad_id": 37902, "name": "FENGYUN 1C DEB", "group": "fengyun-1c-debris", "lat": 51.59921931733107, "lon": -156.04181863314713, "alt_km": 1204.948255485082, "timestamp": "2025-12-21T22:41:41.749529+00:00", "meta": {"OBJECT_NAME": "FENGYUN 1C DEB", "OBJECT_ID": "1999-025ENB", "EPOCH": "2025-12-07T14:03:14.833440", "MEAN_MOTION": 13.52640367, "ECCENTRICITY": 0.03237878, "INCLINATION": 98.6837, "RA_OF_ASC_NODE": 202.4677, "ARG_OF_PERICENTER": 320.2654, "MEAN_ANOMALY": 37.5166, "EPHEMERIS_TYPE": 0, "CLASSIFICATION_TYPE": "U", "NORAD_CAT_ID": 37902, "ELEMENT_SET_NO": 999, "REV_AT_EPOCH": 62907, "BSTAR": 0.003775391, "MEAN_MOTION_DOT": 3.447e-05, "MEAN_MOTION_DDOT": 0}, "tle": {"line1": "1 37902U 99025ENB 25341.58558835  .00003447  00000+0  37754-2 0  9993", "line2": "2 37902  98.6837 202.4677 0323787 320.2654  37.5166 13.52640367629073"}}, "geometry": {"type": "Point", "coordinates": [-156.04181863314713, 51.59921931733107]}}]}